BEESAT-4                
1 41619U 16040W   22281.07889511  .00031772  00000+0  95793-3 0  9991
2 41619  97.2048 328.8344 0010205  78.0589 282.1797 15.34194168337977
RAVAN                   
1 41849U 16067B   22280.97176769  .00007375  00000+0  57541-3 0  9998
2 41849  98.0084  61.3368 0014159 320.9578  39.0622 15.01392123322879
CELTEE 1                
1 41850U 16067C   22281.35100814  .00003928  00000+0  32984-3 0  9995
2 41850  98.0143  56.3370 0008297 331.7463  28.3307 14.98920322322664
OPTICUBE 04             
1 41851U 16067D   22280.92002340  .00003797  00000+0  32606-3 0  9998
2 41851  98.0117  54.7923 0007535 335.3599  24.7261 14.98075925322542
AEROCUBE 8D             
1 41852U 16067E   22280.61210185  .00005291  00000+0  44283-3 0  9998
2 41852  98.0119  54.5836 0009125 337.0944  22.9869 14.98874745322491
AEROCUBE 8C             
1 41853U 16067F   22280.86254663  .00006675  00000+0  55770-3 0  9995
2 41853  98.0109  54.6476 0008441 340.1632  19.9261 14.98846091322520
PROMETHEUS 2-1          
1 41854U 16067G   22281.06878692  .00010166  00000+0  81265-3 0  9991
2 41854  98.0164  56.1623 0015712 337.0463  23.0056 15.00339475322625
PROMETHEUS 2-3          
1 41855U 16067H   22281.32671289  .00009516  00000+0  76131-3 0  9997
2 41855  98.0113  56.5048 0014472 357.1567   2.9571 15.00341292322667
INS-1B                  
1 41954U 17008G   22281.12093672  .00029675  00000+0  89137-3 0  9993
2 41954  97.2455 338.7958 0007111 179.6454 180.4796 15.34353329314007
BGUSAT                  
1 41999U 17008BD  22280.46185605  .00087065  00000+0  16293-2 0  9995
2 41999  97.2700 350.9065 0005439 165.7706 194.3699 15.48382006313926
DIDO-2                  
1 42000U 17008BE  22281.10293756  .00016197  00000+0  55760-3 0  9999
2 42000  97.2448 337.5806 0006487 205.1333 154.9593 15.30103304313289
PEASSS                  
1 42015U 17008BV  22281.40800478  .00023321  00000+0  70690-3 0  9999
2 42015  97.2511 342.3724 0004705 191.1218 168.9922 15.34127174314070
AL-FARABI 1             
1 42016U 17008BW  22281.18341307  .00038754  00000+0  10313-2 0  9997
2 42016  97.2581 345.8151 0004248 184.4251 175.6957 15.38101940314355
NAYIF-1 (EO-88)         
1 42017U 17008BX  22281.25191665  .00038457  00000+0  10169-2 0  9995
2 42017  97.2578 345.9103 0004494 184.0174 176.1036 15.38299387314394
UCLSAT                  
1 42765U 17036A   22281.07599784  .00025573  00000+0  81991-3 0  9997
2 42765  97.1861 320.3203 0006955 282.5523  77.4942 15.32305776294493
LITUANICASAT-2          
1 42768U 17036D   22281.08016434  .00061283  00000+0  14503-2 0  9999
2 42768  97.1934 324.3404 0007633 252.6880 107.3533 15.41553585294562
AALTO-1                 
1 42775U 17036L   22281.06829935  .00014447  00000+0  54526-3 0  9993
2 42775  97.1876 314.6387 0010267 289.7244  70.2887 15.27076985293959
URSA MAIOR              
1 42776U 17036M   22281.06863502  .00015754  00000+0  58178-3 0  9991
2 42776  97.1890 315.4906 0009885 287.7188  72.2973 15.27782851293999
COMPASS 2               
1 42777U 17036N   22281.06342866  .00040642  00000+0  11382-2 0  9996
2 42777  97.1932 323.0382 0007110 262.3802  97.6635 15.36489337294418
DIAMOND RED             
1 42783U 17036U   22280.67729708  .00018679  00000+0  65907-3 0  9991
2 42783  97.1895 317.6695 0008242 294.3787  65.6593 15.29257798294080
PEGASUS                 
1 42784U 17036V   22281.06990037  .00022911  00000+0  76003-3 0  9994
2 42784  97.1882 319.4480 0007735 287.3775  72.6620 15.31225310294238
DIAMOND GREEN           
1 42785U 17036W   22281.07058776  .00018981  00000+0  66918-3 0  9997
2 42785  97.1896 318.1138 0008047 293.9460  66.0937 15.29282878294137
DIAMOND BLUE            
1 42786U 17036X   22281.33145092  .00017925  00000+0  63216-3 0  9990
2 42786  97.1892 318.3578 0008106 293.4796  66.5593 15.29283637294178
NUDTSAT                 
1 42787U 17036Y   22281.49333070  .00043622  00000+0  11638-2 0  9996
2 42787  97.1907 324.9282 0006161 269.0493  91.0126 15.37986807294446
SUCHAI                  
1 42788U 17036Z   22281.37500145  .00026658  00000+0  82083-3 0  9996
2 42788  97.1885 321.7176 0006862 277.1751  82.8711 15.33589808294471
SKCUBE                  
1 42789U 17036AA  22280.84871794  .00027131  00000+0  86415-3 0  9999
2 42789  97.1883 320.5250 0007031 282.4696  77.5759 15.32504602294275
VZLUSAT-1               
1 42790U 17036AB  22280.86380473  .00045434  00000+0  12238-2 0  9999
2 42790  97.1905 324.2475 0005776 266.2780  93.7805 15.37683567294499
ROBUSTA 1B              
1 42792U 17036AD  22281.08641594  .00028060  00000+0  87274-3 0  9999
2 42792  97.1883 321.4164 0006589 280.1668  79.8831 15.33261197294360
CICERO 6                
1 42793U 17036AE  22280.83933373  .00016730  00000+0  59483-3 0  9993
2 42793  97.1872 318.3218 0006856 294.1916  65.8608 15.29039817294232
CORVUS BC2              
1 42846U 17042X   22281.14419156  .00003315  00000+0  32233-3 0  9991
2 42846  97.4087 132.0186 0009003 349.9598  10.1442 14.93168703285099
CORVUS BC1              
1 42847U 17042Y   22280.81511351  .00003303  00000+0  32049-3 0  9997
2 42847  97.4088 132.0331 0008704 350.2834   9.8217 14.93258775285058
MIRATA                  
1 43015U 17073C   22281.17911062  .00013013  00000+0  92069-3 0  9999
2 43015  97.6586 172.3175 0234223 169.6841 190.9306 14.85408125263998
MAKERSAT 0              
1 43016U 17073D   22281.14977653  .00007178  00000+0  52449-3 0  9998
2 43016  97.6599 171.5798 0242352 175.1789 185.1845 14.83296598263889
CORVUS BC3              
1 43118U 18004H   22281.20153981  .00015406  00000+0  55048-3 0  9994
2 43118  97.3532 352.4996 0007906 332.0627  28.0188 15.28892503263439
MICROMAS-2A             
1 43131U 18004W   22281.19374354  .00057913  00000+0  13678-2 0  9997
2 43131  97.3675   1.0641 0004772 304.9401  55.1397 15.41647658263912
SPACEBEE-4              
1 43139U 18004AE  22281.17768700  .00175379  00000+0  23107-2 0  9990
2 43139  97.3766   7.9956 0004641 283.7536  76.3203 15.57821714264290
CICERO 7                
1 43143U 18004AJ  22281.17084005  .00034694  00000+0  95956-3 0  9990
2 43143  97.3663 359.9494 0004193 325.6817  34.4155 15.36930492263862
GOMX-4B                 
1 43196U 18015E   22280.88446085  .00013968  00000+0  50504-3 0  9998
2 43196  97.5490  61.5116 0017263  24.4942 335.7113 15.28419280260329
GOMX-4A                 
1 43197U 18015F   22281.38370785  .00014741  00000+0  50226-3 0  9999
2 43197  97.5481  63.1316 0016568  21.6284  62.5722 15.30356630260485
AEROCUBE 12A            
1 43556U 18046C   22281.19990695  .00045413  00000+0  99132-3 0  9998
2 43556  51.6378 352.6491 0006996  72.7385 287.4366 15.43729037236702
AEROCUBE 12B            
1 43557U 18046D   22280.72658542  .00032531  00000+0  79028-3 0  9998
2 43557  51.6383   1.4015 0007229  71.1354 289.0414 15.40678966236498
SURFSAT                 
1 43614U 18070B   22281.14179323  .00100689  00000+0  10180-2 0  9994
2 43614  93.0135 146.8128 0004968 297.6647  62.4116 15.64983062228623
CP7 (DAVE)              
1 43615U 18070C   22281.14700542  .00087320  00000+0  97444-3 0  9993
2 43615  93.0126 146.5275 0005802 303.6783  56.3930 15.62494371228579
CUBEBEL-1 (BSUSAT-1)    
1 43666U 18083E   22281.45583889  .00017873  00000+0  71405-3 0  9995
2 43666  97.4145 308.9523 0010827 297.8797 167.9846 15.25135664218699
CICERO 10               
1 43690U 18088A   22281.38620413  .00016370  00000+0  62384-3 0  9991
2 43690  85.0348 241.2783 0016218  90.3339 269.9764 15.26461356216959
IRVINE01                
1 43693U 18088D   22280.90354259  .00120275  00000+0  23539-2 0  9991
2 43693  85.0253 234.1568 0013855  67.4778 292.7942 15.46872190217547
PROXIMA I               
1 43694U 18088E   22281.35488427  .00020113  00000+0  72620-3 0  9993
2 43694  85.0291 237.7049 0018934  62.3954 297.9211 15.28193954217197
PROXIMA II              
1 43696U 18088G   22281.35692667  .00020434  00000+0  73850-3 0  9990
2 43696  85.0288 237.7272 0019054  62.0161 298.3009 15.28159951217193
FACSAT-1                
1 43721U 18096C   22281.43927376  .00044584  00000+0  10872-2 0  9991
2 43721  97.3441   1.4029 0011817  12.3339  47.9494 15.40683446215345
CENTAURI-2              
1 43722U 18096D   22281.20243755  .00067812  00000+0  13919-2 0  9993
2 43722  97.3487   3.8911 0010862   3.5300 356.6024 15.45728487215452
INNOSAT-2               
1 43738U 18096V   22281.48854324  .00206182  00000+0  20856-2 0  9993
2 43738  97.3581  13.6209 0009119 323.5039 168.4728 15.64591961216075
SIRION PATHFINDER-2     
1 43759U 18099B   22281.17157749  .00003306  00000+0  29400-3 0  9990
2 43759  97.6091 344.9509 0012870 240.6995 119.2942 14.96708140209907
CORVUS BC4              
1 43767U 18099K   22280.83657430  .00003924  00000+0  35349-3 0  9998
2 43767  97.6047 342.9671 0010306 247.8128 112.2000 14.96117441209775
MOVE-II                 
1 43780U 18099Y   22281.16269243  .00008332  00000+0  69869-3 0  9993
2 43780  97.6143 345.9784 0011727 251.7893 108.2054 14.98578473209936
SPACEBEE-7              
1 43816U 18099BL  22281.16146185  .00006554  00000+0  55435-3 0  9990
2 43816  97.6173 346.7038 0011552 230.8871 129.1325 14.98327859209528
SPACEBEE-5              
1 43817U 18099BM  22281.18832500  .00020802  00000+0  15440-2 0  9999
2 43817  97.6269 350.4125 0004577 210.8579 149.2378 15.03065070209696
SPACEBEE-6              
1 43818U 18099BN  22280.76423020  .00010904  00000+0  88740-3 0  9992
2 43818  97.6218 347.4430 0011440 237.4397 122.5722 14.99659884209666
SHIELDS 1               
1 43850U 18104B   22281.18538642  .00007150  00000+0  29004-3 0  9996
2 43850  85.0301 337.3881 0012905 200.7679 159.3041 15.24355040211679
STF-1                   
1 43852U 18104D   22281.20322499  .00019892  00000+0  70786-3 0  9991
2 43852  85.0327 337.3090 0011180 211.3387 148.7194 15.28786074211758
